OBJECT_NAME,OBJECT_ID,EPOCH,MEAN_MOTION,ECCENTRICITY,INCLINATION,RA_OF_ASC_NODE,ARG_OF_PERICENTER,MEAN_ANOMALY,EPHEMERIS_TYPE,CLASSIFICATION_TYPE,NORAD_CAT_ID,ELEMENT_SET_NO,REV_AT_EPOCH,BSTAR,MEAN_MOTION_DOT,MEAN_MOTION_DDOT
STARLINK-31365,2024-031J,2024-02-24T07:16:00.994656,15.80398468,4e-05,53.1682,156.5149,63.1344,296.9719,0,U,58973,999,253,-0.001504,-0.00281809,0
STARLINK-31361,2024-031K,2024-02-24T07:16:33.165696,15.80360133,5.76e-05,53.1684,156.5172,352.2352,7.8661,0,U,58974,999,253,-0.0016005,-0.00298746,0
STARLINK-31369,2024-031L,2024-02-24T07:15:28.832256,15.80397998,5.05e-05,53.1681,156.5125,10.9076,349.1957,0,U,58975,999,253,-0.0015555,-0.00291123,0
STARLINK-31324,2024-031M,2024-02-24T07:14:58.498080,15.80440655,1.36e-05,53.1686,156.5092,345.6782,14.4237,0,U,58976,999,253,-0.0015106,-0.00283526,0
STARLINK-31358,2024-031N,2024-02-24T07:14:24.750240,15.80486758,2.98e-05,53.1683,156.5076,58.6391,301.4661,0,U,58977,999,248,-0.0014953,-0.00281334,0
STARLINK-31355,2024-031P,2024-02-24T07:13:54.658848,15.80603441,4.29e-05,53.1678,156.5044,321.079,39.0202,0,U,58978,999,253,-0.00093511,-0.0017923,0
STARLINK-31380,2024-031Q,2024-02-24T07:13:25.146336,15.80556244,6.49e-05,53.1682,156.5021,37.9947,322.1121,0,U,58979,999,253,-0.0014931,-0.00281819,0
STARLINK-31353,2024-031R,2024-02-24T07:12:21.595680,15.806006,6.7e-05,53.1677,156.4954,124.2783,235.8303,0,U,58980,999,248,-0.003255,-0.00593298,0
STARLINK-31339,2024-031S,2024-02-24T07:12:54.172800,15.80564166,6.5e-05,53.1682,156.5013,41.1839,318.9233,0,U,58981,999,253,-0.0016239,-0.00305722,0
STARLINK-31360,2024-031T,2024-02-24T07:11:52.352736,15.80567912,4.4e-05,53.1693,156.4938,91.9941,268.1132,0,U,58982,999,253,-0.0019503,-0.00364618,0
STARLINK-31384,2024-031U,2024-02-24T07:11:22.691616,15.80605055,4.24e-05,53.1679,156.4927,58.8722,301.2342,0,U,58983,999,253,-0.0018132,-0.00340551,0
STARLINK-31379,2024-031V,2024-02-24T07:10:52.220064,15.80631196,8.37e-05,53.1678,156.489,22.4102,337.6957,0,U,58984,999,253,-0.0019213,-0.00360454,0
STARLINK-31385,2024-031W,2024-02-24T08:17:56.752800,15.89952461,1.03e-05,53.1682,156.0627,325.2717,34.8303,0,U,58985,999,253,-0.00039188,-0.00119222,0
STARLINK-31229,2024-031X,2024-02-24T07:09:47.586816,15.80721672,5.08e-05,53.1677,156.4845,13.4662,346.6374,0,U,58986,999,253,-0.0016459,-0.00311884,0
2024-032B,2024-032B,2024-02-21T10:15:45.408096,14.66967822,0.0001717,98.12,109.7876,268.0294,92.0713,0,U,58988,999,64,0.0025736,0.00014389,0
2024-032C,2024-032C,2024-02-24T11:49:08.520672,14.67834628,0.0004678,98.1143,112.8268,323.3944,36.694,0,U,58989,999,109,0.00034459,1.919e-05,0
INSAT-3DS,2024-033A,2024-02-18T06:09:05.908896,2.12501023,0.7439297,19.4346,272.9648,178.6043,206.5352,0,U,58990,999,2,0.014711,0.00477622,8.9628e-07
MERAH PUTIH 2,2024-035A,2024-02-22T10:43:36.732288,1.38485193,0.8032276,20.7825,289.6865,179.5186,71.1941,0,U,58995,999,11,0,-9.3e-07,0
