58973,STARLINK-31365,2024,91.13,-1.0,+,53.17,Active,0,LEO,USA,USA,Unknown,Unknown,Unknown,1 58973U 24031J   24055.30278929 -.00281809  00000+0 -15040-2 0  9999,2 58973  53.1682 156.5149 0000400  63.1344 296.9719 15.80398468  2530,15.80398468,4e-05,LEO
58974,STARLINK-31361,2024,91.13,-1.0,+,53.17,Active,0,LEO,USA,USA,Unknown,Unknown,Unknown,1 58974U 24031K   24055.30316164 -.00298746  00000+0 -16005-2 0  9994,2 58974  53.1684 156.5172 0000576 352.2352   7.8661 15.80360133  2537,15.80360133,5.76e-05,LEO
58975,STARLINK-31369,2024,91.13,-1.0,+,53.17,Active,0,LEO,USA,USA,Unknown,Unknown,Unknown,1 58975U 24031L   24055.30241704 -.00291123  00000+0 -15555-2 0  9993,2 58975  53.1681 156.5125 0000505  10.9076 349.1957 15.80397998  2513,15.80397998,5.05e-05,LEO
58976,STARLINK-31324,2024,91.13,-1.0,+,53.17,Active,0,LEO,USA,USA,Unknown,Unknown,Unknown,1 58976U 24031M   24055.30206595 -.00283526  00000+0 -15106-2 0  9993,2 58976  53.1686 156.5092 0000136 345.6782  14.4237 15.80440655  2516,15.80440655,1.36e-05,LEO
58977,STARLINK-31358,2024,91.13,-1.0,+,53.17,Active,0,LEO,USA,USA,Unknown,Unknown,Unknown,1 58977U 24031N   24055.30167535 -.00281334  00000+0 -14953-2 0  9998,2 58977  53.1683 156.5076 0000298  58.6391 301.4661 15.80486758  2516,15.80486758,2.98e-05,LEO
58978,STARLINK-31355,2024,91.13,-1.0,+,53.17,Active,0,LEO,USA,USA,Unknown,Unknown,Unknown,1 58978U 24031P   24055.30132707 -.00179230  00000+0 -93511-3 0  9991,2 58978  53.1678 156.5044 0000429 321.0790  39.0202 15.80603441  2517,15.80603441,4.29e-05,LEO
58979,STARLINK-31380,2024,91.13,-1.0,+,53.17,Active,0,LEO,USA,USA,Unknown,Unknown,Unknown,1 58979U 24031Q   24055.30098549 -.00281819  00000+0 -14931-2 0  9992,2 58979  53.1682 156.5021 0000649  37.9947 322.1121 15.80556244  2513,15.80556244,6.49e-05,LEO
58980,STARLINK-31353,2024,91.12,-1.0,+,53.17,Active,0,LEO,USA,USA,Unknown,Unknown,Unknown,1 58980U 24031R   24055.30024995 -.00593298  00000+0 -32550-2 0  9992,2 58980  53.1677 156.4954 0000670 124.2783 235.8303 15.80600600  2513,15.806006,6.7e-05,LEO
58981,STARLINK-31339,2024,91.12,-1.0,+,53.17,Active,0,LEO,USA,USA,Unknown,Unknown,Unknown,1 58981U 24031S   24055.30062700 -.00305722  00000+0 -16239-2 0  9998,2 58981  53.1682 156.5013 0000650  41.1839 318.9233 15.80564166  2515,15.80564166,6.5e-05,LEO
58982,STARLINK-31360,2024,91.12,-1.0,+,53.17,Active,0,LEO,USA,USA,Unknown,Unknown,Unknown,1 58982U 24031T   24055.29991149 -.00364618  00000+0 -19503-2 0  9991,2 58982  53.1693 156.4938 0000440  91.9941 268.1132 15.80567912  2513,15.80567912,4.4e-05,LEO
58983,STARLINK-31384,2024,91.12,-1.0,+,53.17,Active,0,LEO,USA,USA,Unknown,Unknown,Unknown,1 58983U 24031U   24055.29956819 -.00340551  00000+0 -18132-2 0  9994,2 58983  53.1679 156.4927 0000424  58.8722 301.2342 15.80605055  2510,15.80605055,4.24e-05,LEO
58984,STARLINK-31379,2024,91.12,-1.0,+,53.17,Active,0,LEO,USA,USA,Unknown,Unknown,Unknown,1 58984U 24031V   24055.29921551 -.00360454  00000+0 -19213-2 0  9995,2 58984  53.1678 156.4890 0000837  22.4102 337.6957 15.80631196  2516,15.80631196,8.37e-05,LEO
58985,STARLINK-31385,2024,90.57,-1.0,+,53.17,Active,0,LEO,USA,USA,Unknown,Unknown,Unknown,1 58985U 24031W   24055.34579575 -.00119222  00000+0 -39188-3 0  9996,2 58985  53.1682 156.0627 0000103 325.2717  34.8303 15.89952461  2520,15.89952461,1.03e-05,LEO
58986,STARLINK-31229,2024,91.12,-1.0,+,53.17,Active,0,LEO,USA,USA,Unknown,Unknown,Unknown,1 58986U 24031X   24055.29846744 -.00311884  00000+0 -16459-2 0  9999,2 58986  53.1677 156.4845 0000508  13.4662 346.6374 15.80721672  2515,15.80721672,5.08e-05,LEO
58988,OBJECT B,2024,98.16,-1.0,+,98.12,Active,0,LEO,Japan,Japan,Unknown,Unknown,Unknown,1 58988U 24032B   24052.42760889  .00014389  00000+0  25736-2 0  9995,2 58988  98.1200 109.7876 0001717 268.0294  92.0713 14.66967822   648,14.66967822,0.0001717,LEO
58989,OBJECT C,2024,98.1,-1.0,+,98.11,Active,0,LEO,Japan,Japan,Unknown,Unknown,Unknown,1 58989U 24032C   24055.49245973  .00001919  00000+0  34459-3 0  9996,2 58989  98.1143 112.8268 0004678 323.3944  36.6940 14.67834628  1095,14.67834628,0.0004678,LEO
58990,INSAT-3DS,2024,679.18,-1.0,+,19.42,Active,0,MEO,India,India,Unknown,Unknown,Unknown,1 58990U 24033A   24049.25631839  .00477622  89628-6  14711-1 0  9991,2 58990  19.4346 272.9648 7439297 178.6043 206.5352  2.12501023    29,2.12501023,0.7439297,MEO
58995,MERAH PUTIH 2,2024,1039.82,-1.0,+,20.78,Active,0,MEO,USA,Indonesia,Unknown,Unknown,Unknown,1 58995U 24035A   24053.44695292 -.00000093  00000+0  00000+0 0  9996,2 58995  20.7825 289.6865 8032276 179.5186  71.1941  1.38485193   118,1.38485193,0.8032276,MEO
